{"type": "FeatureCollection", "features": [ {"type": "Feature", "properties": {"norad_id": 43010, "name": "FENGYUN 3D", "group": "weather", "lat": -34.58034169274952, "lon": -35.901831740050646, "alt_km": 833.341167583385, "timestamp": "2025-12-17T10:52:53.991816+00:00", "meta": {"OBJECT_NAME": "FENGYUN 3D", "OBJECT_ID": "2017-072A", "EPOCH": "2025-12-16T23:12:22.870368", "MEAN_MOTION": 14.19686173, "ECCENTRICITY": 0.00011462, "INCLINATION": 98.9888, "RA_OF_ASC_NODE": 317.3403, "ARG_OF_PERICENTER": 169.6565, "MEAN_ANOMALY": 190.4634, "EPHEMERIS_TYPE": 0, "CLASSIFICATION_TYPE": "U", "NORAD_CAT_ID": 43010, "ELEMENT_SET_NO": 999, "REV_AT_EPOCH": 41913, "BSTAR": 0.00017363592, "MEAN_MOTION_DOT": 3.21e-06, "MEAN_MOTION_DDOT": 0}, "tle": {"line1": "1 43010U 17072A   25350.96693137  .00000321  00000+0  17364-3 0  9993", "line2": "2 43010  98.9888 317.3403 0001146 169.6565 190.4634 14.19686173419132"}}, "geometry": {"type": "Point", "coordinates": [-35.901831740050646, -34.58034169274952]}}, {"type": "Feature", "properties": {"norad_id": 43013, "name": "NOAA 20 (JPSS-1)", "group": "weather", "lat": 63.94114072751043, "lon": 126.0792085212853, "alt_km": 819.4077932612308, "timestamp": "2025-12-17T10:52:53.991828+00:00", "meta": {"OBJECT_NAME": "NOAA 20 (JPSS-1)", "OBJECT_ID": "2017-073A", "EPOCH": "2025-12-16T22:30:08.390304", "MEAN_MOTION": 14.19526878, "ECCENTRICITY": 0.00021562, "INCLINATION": 98.7603, "RA_OF_ASC_NODE": 287.1885, "ARG_OF_PERICENTER": 81.1496, "MEAN_ANOMALY": 278.9924, "EPHEMERIS_TYPE": 0, "CLASSIFICATION_TYPE": "U", "NORAD_CAT_ID": 43013, "ELEMENT_SET_NO": 999, "REV_AT_EPOCH": 41861, "BSTAR": 5.8734041e-05, "MEAN_MOTION_DOT": 8e-07, "MEAN_MOTION_DDOT": 0}, "tle": {"line1": "1 43013U 17073A   25350.93759711  .00000080  00000+0  58734-4 0  9994", "line2": "2 43013  98.7603 287.1885 0002156  81.1496 278.9924 14.19526878418610"}}, "geometry": {"type": "Point", "coordinates": [126.0792085212853, 63.94114072751043]}}, {"type": "Feature", "properties": {"norad_id": 43226, "name": "GOES 17", "group": "weather", "lat": 0.4449326853509457, "lon": 160.01422482328235, "alt_km": 35792.67068104864, "timestamp": "2025-12-17T10:52:53.991841+00:00", "meta": {"OBJECT_NAME": "GOES 17", "OBJECT_ID": "2018-022A", "EPOCH": "2025-12-16T14:38:37.445568", "MEAN_MOTION": 1.00271346, "ECCENTRICITY": 0.00031147, "INCLINATION": 0.4682, "RA_OF_ASC_NODE": 89.1672, "ARG_OF_PERICENTER": 190.4506, "MEAN_ANOMALY": 296.0407, "EPHEMERIS_TYPE": 0, "CLASSIFICATION_TYPE": "U", "NORAD_CAT_ID": 43226, "ELEMENT_SET_NO": 999, "REV_AT_EPOCH": 2859, "BSTAR": 0, "MEAN_MOTION_DOT": -1.59e-06, "MEAN_MOTION_DDOT": 0}, "tle": {"line1": "1 43226U 18022A   25350.61015562 -.00000159  00000+0  00000+0 0  9995", "line2": "2 43226   0.4682  89.1672 0003114 190.4506 296.0407  1.00271346 28592"}}, "geometry": {"type": "Point", "coordinates": [160.01422482328235, 0.4449326853509457]}}, {"type": "Feature", "properties": {"norad_id": 43491, "name": "FENGYUN 2H", "group": "weather", "lat": -2.378334053974078, "lon": -31.089395338941618, "alt_km": 35784.849587636236, "timestamp": "2025-12-17T10:52:53.991854+00:00", "meta": {"OBJECT_NAME": "FENGYUN 2H", "OBJECT_ID": "2018-050A", "EPOCH": "2025-12-16T20:34:57.718272", "MEAN_MOTION": 1.00271391, "ECCENTRICITY": 0.00024824, "INCLINATION": 2.5614, "RA_OF_ASC_NODE": 81.2864, "ARG_OF_PERICENTER": 166.6314, "MEAN_ANOMALY": 225.921, "EPHEMERIS_TYPE": 0, "CLASSIFICATION_TYPE": "U", "NORAD_CAT_ID": 43491, "ELEMENT_SET_NO": 999, "REV_AT_EPOCH": 2761, "BSTAR": 0, "MEAN_MOTION_DOT": -1.07e-06, "MEAN_MOTION_DDOT": 0}, "tle": {"line1": "1 43491U 18050A   25350.85761248 -.00000107  00000+0  00000+0 0  9998", "line2": "2 43491   2.5614  81.2864 0002482 166.6314 225.9210  1.00271391 27614"}}, "geometry": {"type": "Point", "coordinates": [-31.089395338941618, -2.378334053974078]}}, {"type": "Feature", "properties": {"norad_id": 43689, "name": "METOP-C", "group": "weather", "lat": -69.43548525650111, "lon": 73.21630716560983, "alt_km": 827.7252018634263, "timestamp": "2025-12-17T10:52:53.991875+00:00", "meta": {"OBJECT_NAME": "METOP-C", "OBJECT_ID": "2018-087A", "EPOCH": "2025-12-16T23:23:28.503744", "MEAN_MOTION": 14.21485998, "ECCENTRICITY": 0.00010481, "INCLINATION": 98.6926, "RA_OF_ASC_NODE": 48.6794, "ARG_OF_PERICENTER": 31.3549, "MEAN_ANOMALY": 328.7691, "EPHEMERIS_TYPE": 0, "CLASSIFICATION_TYPE": "U", "NORAD_CAT_ID": 43689, "ELEMENT_SET_NO": 999, "REV_AT_EPOCH": 36894, "BSTAR": 7.6899975e-05, "MEAN_MOTION_DOT": 1.25e-06, "MEAN_MOTION_DDOT": 0}, "tle": {"line1": "1 43689U 18087A   25350.97463546  .00000125  00000+0  76900-4 0  9996", "line2": "2 43689  98.6926  48.6794 0001048  31.3549 328.7691 14.21485998368945"}}, "geometry": {"type": "Point", "coordinates": [73.21630716560983, -69.43548525650111]}}, {"type": "Feature", "properties": {"norad_id": 43823, "name": "GEO-KOMPSAT-2A", "group": "weather", "lat": -0.02440908327628158, "lon": 17.81380107691731, "alt_km": 35786.049236187486, "timestamp": "2025-12-17T10:52:53.991887+00:00", "meta": {"OBJECT_NAME": "GEO-KOMPSAT-2A", "OBJECT_ID": "2018-100A", "EPOCH": "2025-12-16T07:07:06.206304", "MEAN_MOTION": 1.00271835, "ECCENTRICITY": 4.993e-05, "INCLINATION": 0.0508, "RA_OF_ASC_NODE": 132.3973, "ARG_OF_PERICENTER": 330.4458, "MEAN_ANOMALY": 217.3998, "EPHEMERIS_TYPE": 0, "CLASSIFICATION_TYPE": "U", "NORAD_CAT_ID": 43823, "ELEMENT_SET_NO": 999, "REV_AT_EPOCH": 2579, "BSTAR": 0, "MEAN_MOTION_DOT": -3.2e-06, "MEAN_MOTION_DDOT": 0}, "tle": {"line1": "1 43823U 18100A   25350.29659961 -.00000320  00000+0  00000+0 0  9996", "line2": "2 43823   0.0508 132.3973 0000499 330.4458 217.3998  1.00271835 25791"}}, "geometry": {"type": "Point", "coordinates": [17.81380107691731, -0.02440908327628158]}}, {"type": "Feature", "properties": {"norad_id": 44387, "name": "METEOR-M2 2", "group": "weather", "lat": 49.57860034450979, "lon": -39.357779588884284, "alt_km": 806.2656130621535, "timestamp": "2025-12-17T10:52:53.991899+00:00", "meta": {"OBJECT_NAME": "METEOR-M2 2", "OBJECT_ID": "2019-038A", "EPOCH": "2025-12-17T00:31:47.382816", "MEAN_MOTION": 14.24293001, "ECCENTRICITY": 0.00014399, "INCLINATION": 98.8968, "RA_OF_ASC_NODE": 330.8033, "ARG_OF_PERICENTER": 138.8666, "MEAN_ANOMALY": 221.2621, "EPHEMERIS_TYPE": 0, "CLASSIFICATION_TYPE": "U", "NORAD_CAT_ID": 44387, "ELEMENT_SET_NO": 999, "REV_AT_EPOCH": 33536, "BSTAR": 9.842078e-06, "MEAN_MOTION_DOT": -2.3e-07, "MEAN_MOTION_DDOT": 0}, "tle": {"line1": "1 44387U 19038A   25351.02207619 -.00000023  00000+0  98421-5 0  9994", "line2": "2 44387  98.8968 330.8033 0001439 138.8666 221.2621 14.24293001335363"}}, "geometry": {"type": "Point", "coordinates": [-39.357779588884284, 49.57860034450979]}}, {"type": "Feature", "properties": {"norad_id": 47719, "name": "ARKTIKA-M 1", "group": "weather", "lat": 46.704270405764824, "lon": -129.03322608227776, "alt_km": 24125.92120314247, "timestamp": "2025-12-17T10:52:53.991913+00:00", "meta": {"OBJECT_NAME": "ARKTIKA-M 1", "OBJECT_ID": "2021-016A", "EPOCH": "2025-12-16T01:33:46.454400", "MEAN_MOTION": 2.00630649, "ECCENTRICITY": 0.72056757, "INCLINATION": 63.179, "RA_OF_ASC_NODE": 83.5626, "ARG_OF_PERICENTER": 269.1378, "MEAN_ANOMALY": 15.5886, "EPHEMERIS_TYPE": 0, "CLASSIFICATION_TYPE": "U", "NORAD_CAT_ID": 47719, "ELEMENT_SET_NO": 999, "REV_AT_EPOCH": 3511, "BSTAR": 0, "MEAN_MOTION_DOT": -1.08e-06, "MEAN_MOTION_DDOT": 0}, "tle": {"line1": "1 47719U 21016A   25350.06512100 -.00000108  00000+0  00000+0 0  9996", "line2": "2 47719  63.1790  83.5626 7205675 269.1378  15.5886  2.00630649 35117"}}, "geometry": {"type": "Point", "coordinates": [-129.03322608227776, 46.704270405764824]}}, {"type": "Feature", "properties": {"norad_id": 49008, "name": "FENGYUN 3E", "group": "weather", "lat": -63.70127793579597, "lon": 10.071796015331117, "alt_km": 832.7070972432275, "timestamp": "2025-12-17T10:52:53.991925+00:00", "meta": {"OBJECT_NAME": "FENGYUN 3E", "OBJECT_ID": "2021-062A", "EPOCH": "2025-12-16T23:20:57.017760", "MEAN_MOTION": 14.19881381, "ECCENTRICITY": 6.382e-05, "INCLINATION": 98.7477, "RA_OF_ASC_NODE": 351.444, "ARG_OF_PERICENTER": 234.3856, "MEAN_ANOMALY": 125.7261, "EPHEMERIS_TYPE": 0, "CLASSIFICATION_TYPE": "U", "NORAD_CAT_ID": 49008, "ELEMENT_SET_NO": 999, "REV_AT_EPOCH": 23072, "BSTAR": 0.00010352903, "MEAN_MOTION_DOT": 1.76e-06, "MEAN_MOTION_DDOT": 0}, "tle": {"line1": "1 49008U 21062A   25350.97288215  .00000176  00000+0  10353-3 0  9997", "line2": "2 49008  98.7477 351.4440 0000638 234.3856 125.7261 14.19881381230726"}}, "geometry": {"type": "Point", "coordinates": [10.071796015331117, -63.70127793579597]}}, {"type": "Feature", "properties": {"norad_id": 51850, "name": "GOES 18", "group": "weather", "lat": 0.004424007427691781, "lon": 112.5469644179043, "alt_km": 35787.61889644906, "timestamp": "2025-12-17T10:52:53.991937+00:00", "meta": {"OBJECT_NAME": "GOES 18", "OBJECT_ID": "2022-021A", "EPOCH": "2025-12-16T08:28:42.807936", "MEAN_MOTION": 1.00271857, "ECCENTRICITY": 4.701e-05, "INCLINATION": 0.0125, "RA_OF_ASC_NODE": 94.3935, "ARG_OF_PERICENTER": 230.6521, "MEAN_ANOMALY": 110.3782, "EPHEMERIS_TYPE": 0, "CLASSIFICATION_TYPE": "U", "NORAD_CAT_ID": 51850, "ELEMENT_SET_NO": 999, "REV_AT_EPOCH": 475, "BSTAR": 0, "MEAN_MOTION_DOT": 1.2e-06, "MEAN_MOTION_DDOT": 0}, "tle": {"line1": "1 51850U 22021A   25350.35327324  .00000120  00000+0  00000+0 0  9991", "line2": "2 51850   0.0125  94.3935 0000470 230.6521 110.3782  1.00271857  4751"}}, "geometry": {"type": "Point", "coordinates": [112.5469644179043, 0.004424007427691781]}}]}